MEASAT-3A               
1 35362U 09032A   21305.88406086 -.00000233  00000-0  00000-0 0  9993
2 35362   0.0337 169.3237 0003311  57.7002 224.1550  1.00269850 45317
GOES 14                 
1 35491U 09033A   21306.61017142 -.00000085  00000-0  00000+0 0  9994
2 35491   0.2715 283.1542 0015786 295.1742 299.2167  1.00271021 45235
FM-5                    
1 35493U 09034A   21306.50694887 -.00000191  00000-0  00000-0 0  9991
2 35493   0.0242 294.3381 0000894 117.4719  86.5807  1.00270249 29724
TERRESTAR-1             
1 35496U 09035A   21306.55011451 -.00000047  00000-0  00000-0 0  9990
2 35496   2.9156  33.2324 0002791 187.7246 268.1210  1.00271772 45212
ASIASAT 5               
1 35696U 09042A   21306.38822966 -.00000299  00000-0  00000-0 0  9991
2 35696   0.0429 105.2362 0001561 124.0767  52.8418  1.00269811 44762
JCSAT-RA (JCSAT-12)     
1 35755U 09044A   21306.51539587 -.00000256  00000-0  00000-0 0  9991
2 35755   0.0648 108.1434 0000370 215.6678  48.8979  1.00131952 44680
OPTUS D3                
1 35756U 09044B   21306.42162773 -.00000139  00000-0  00000-0 0  9991
2 35756   0.0427  13.0229 0002469 219.3207 117.3840  1.00269307 44632
NIMIQ 5                 
1 35873U 09050A   21306.38121418 -.00000248  00000-0  00000-0 0  9995
2 35873   0.0128 273.4607 0002890 311.8845 241.0904  1.00272058 44437
AMAZONAS 2              
1 35942U 09054A   21306.43318009 -.00000273  00000-0  00000-0 0  9994
2 35942   0.0553 105.5922 0004435  86.9877 304.3383  1.00272969 44269
COMSATBW-1              
1 35943U 09054B   21306.38081611  .00000033  00000-0  00000-0 0  9998
2 35943   0.0511  81.1281 0002779 147.2411  13.6285  1.00269807 44386
NSS-12                  
1 36032U 09058A   21306.50951997  .00000080  00000-0  00000-0 0  9991
2 36032   0.0158 302.3550 0003047 297.6688  42.4267  1.00272143 43998
THOR 6                  
1 36033U 09058B   21306.29630167 -.00000001  00000-0  00000-0 0  9995
2 36033   0.0117 206.0470 0001651  22.9930 278.6033  1.00270988 44083
INTELSAT 14 (IS-14)     
1 36097U 09064A   21306.43105381 -.00000265  00000-0  00000-0 0  9995
2 36097   0.0212 257.4334 0002221 320.3828 294.2908  1.00268197 43693
EUTELSAT 36B            
1 36101U 09065A   21306.51507708  .00000164  00000-0  00000-0 0  9997
2 36101   0.0708  10.0095 0004699 209.1114  44.2209  1.00270962 43790
INTELSAT 15 (IS-15)     
1 36106U 09067A   21306.45695762 -.00000177  00000-0  00000-0 0  9990
2 36106   0.0231 290.5461 0002266 302.1139  58.9785  1.00271251 24306
WGS F3 (USA 211)        
1 36108U 09068A   21306.54084356  .00000030  00000-0  00000+0 0  9990
2 36108   0.0459  82.7015 0001703 142.6480 249.4832  1.00255067 43596
DIRECTV 12              
1 36131U 09075A   21306.40521201 -.00000094  00000-0  00000-0 0  9996
2 36131   0.0173 203.2138 0000201  93.2095 148.6628  1.00269030 29633
BEIDOU 3                
1 36287U 10001A   21306.61150830 -.00000270  00000-0  00000-0 0  9994
2 36287   1.7065  42.1302 0002193  80.6344 279.9939  1.00273475 43249
RADUGA-1M 2             
1 36358U 10002A   21306.45695762 -.00000176  00000-0  00000+0 0  9998
2 36358   0.0750 263.3268 0003282 331.6203  56.5426  1.00272957 43088
SDO                     
1 36395U 10005A   21306.50692042 -.00000022  00000-0  00000-0 0  9997
2 36395  31.2186 112.9255 0000570 217.1523 152.8045  1.00272576 43144
INTELSAT 16 (IS-16)     
1 36397U 10006A   21306.51253307 -.00000236  00000-0  00000-0 0  9995
2 36397   0.0203 285.6996 0002171 298.2897 286.3615  1.00270294 42738
GOES 15                 
1 36411U 10008A   21306.64179661  .00000064  00000-0  00000+0 0  9995
2 36411   0.2992 276.0980 0000589 318.3748 270.3035  1.00269679 42744
ECHOSTAR 14             
1 36499U 10010A   21306.54312563  .00000009  00000-0  00000-0 0  9993
2 36499   0.0130 260.3285 0002779 319.3778 258.9942  1.00270424 29635
SES-1                   
1 36516U 10016A   21306.40628157 -.00000105  00000-0  00000-0 0  9991
2 36516   0.0095  85.4395 0002423 139.2005 222.5225  1.00270123 42116
ASTRA 3B                
1 36581U 10021A   21306.30109868  .00000145  00000-0  00000-0 0  9994
2 36581   0.0608 311.5885 0004224 260.2730 321.8373  1.00271539 41956
COMSATBW-2              
1 36582U 10021B   21306.29891821  .00000097  00000-0  00000-0 0  9996
2 36582   0.0515  83.3443 0002624 156.0529 283.2249  1.00272121 42039
BADR-5                  
1 36592U 10025A   21306.22984139  .00000153  00000-0  00000-0 0  9992
2 36592   0.0478  97.0432 0004697 100.4108 313.0392  1.00273312 36291
COMS 1                  
1 36744U 10032A   21306.46559221 -.00000334  00000-0  00000-0 0  9997
2 36744   0.5109  96.0195 0000817  94.0183 147.8012  1.00276760 34168
ARABSAT-5A              
1 36745U 10032B   21306.23071358  .00000162  00000-0  00000-0 0  9991
2 36745   0.0631  35.1728 0004730 183.5879 296.5256  1.00270848 41727
ECHOSTAR 15             
1 36792U 10034A   21306.50162299 -.00000273  00000-0  00000-0 0  9994
2 36792   0.0123 304.9933 0002065 246.2071 329.7535  1.00269370 41413
BEIDOU 5                
1 36828U 10036A   21306.57663042 -.00000073  00000-0  00000-0 0  9993
2 36828  54.1798 178.3181 0023222 176.7837   1.1697  1.00263558 41304
NILESAT 201             
1 36830U 10037A   21306.33799494 -.00000048  00000-0  00000-0 0  9994
2 36830   0.0560 142.3895 0003705  62.1933 311.9577  1.00271841 41444
RASCOM-QAF 1R           
1 36831U 10037B   21306.33799494  .00000027  00000-0  00000-0 0  9991
2 36831   0.0074 269.7051 0006710 326.3456 290.3743  1.00271489 41372
AEHF-1 (USA 214)        
1 36868U 10039A   21306.21917057  .00000039  00000-0  00000-0 0  9990
2 36868   3.9639  89.8066 0003813  60.0339 334.8051  1.00273633 36734
CHINASAT 6A (ZX 6A)     
1 37150U 10042A   21306.30188481 -.00000345  00000-0  00000-0 0  9991
2 37150   0.0733 107.5676 0000995  66.3784 101.6110  1.00269311 40973
QZS-1 (MICHIBIKI-1)     
1 37158U 10045A   21306.50339802 -.00000025  00000-0  00000-0 0  9994
2 37158  42.0971 136.5371 0749646 270.2773 318.4169  1.00286626 40815
XM-5                    
1 37185U 10053A   21302.90607406 -.00000199  00000-0  00000+0 0  9992
2 37185   0.0141 225.8223 0000705  56.7114 357.0250  1.00271989 40487
BSAT-3B                 
1 37207U 10056B   21306.50884322 -.00000342  00000-0  00000-0 0  9995
2 37207   0.0410 330.1484 0003492 309.5757  55.3455  1.00271000 35212
BEIDOU 6                
1 37210U 10057A   21306.63000374 -.00000102  00000-0  00000-0 0  9995
2 37210   0.7743  41.9852 0007839 157.2924 229.6735  1.00273048 40364
SKYTERRA 1              
1 37218U 10061A   21306.50941372 -.00000109  00000-0  00000+0 0  9992
2 37218   2.2356  23.3128 0003512 185.9056 274.9081  1.00271675 40302
ZHONGXING-20A           
1 37234U 10064A   21306.53702394 -.00000339  00000-0  00000-0 0  9991
2 37234   2.0792  91.0804 0002789 165.3638 105.3521  1.00274647 40104
HYLAS 1                 
1 37237U 10065A   21306.54647537 -.00000061  00000-0  00000-0 0  9995
2 37237   1.3454  92.4604 0003398 186.5624 204.4156  1.00603337 40066
INTELSAT 17 (IS-17)     
1 37238U 10065B   21306.38142664  .00000006  00000-0  00000-0 0  9997
2 37238   0.0175 194.3811 0002728  36.5795  14.2488  1.00275146 36315
BEIDOU 7                
1 37256U 10068A   21306.38997403 -.00000196  00000-0  00000-0 0  9990
2 37256  50.6200 292.3577 0017426 190.9306 167.3630  1.00264948 39867
EUTELSAT KA-SAT 9A      
1 37258U 10069A   21306.29822046  .00000070  00000-0  00000-0 0  9993
2 37258   0.0658 265.2149 0003343 268.1282 344.8314  1.00271276 27087
HISPASAT 30W-5          
1 37264U 10070A   21306.43401922 -.00000207  00000-0  00000-0 0  9997
2 37264   0.0713  99.0629 0004584  97.7006 331.4260  1.00269403 36261
KOREASAT 6              
1 37265U 10070B   21306.46315010 -.00000353  00000-0  00000-0 0  9995
2 37265   0.0128 292.1562 0002180 313.6429  78.9299  1.00272010 39843
BEIDOU 8                
1 37384U 11013A   21306.52608880 -.00000185  00000-0  00000-0 0  9995
2 37384  59.9675  56.5209 0019466 183.8306  97.0785  1.00269774 38744
INTELSAT NEW DAWN       
1 37392U 11016A   21306.23123689  .00000164  00000-0  00000-0 0  9990
2 37392   0.0215 246.8216 0001238 312.0804 318.8942  1.00271085 36362
YAHSAT 1A               
1 37393U 11016B   21306.50951997  .00000110  00000-0  00000-0 0  9993
2 37393   0.0198 265.9093 0001704 331.2775  40.7559  1.00269665 25472
SBIRS GEO-1 (USA 230)   
1 37481U 11019A   21306.38142664  .00000000  00000-0  00000-0 0  9991
2 37481   1.8106  10.5769 0002313 205.8074  29.0247  1.00272330 38478
TELSTAR 14R             
1 37602U 11021A   21306.50162259 -.00000271  00000-0  00000-0 0  9996
2 37602   0.0532  74.3873 0000983 214.6004 230.6142  1.00271770 38913
GSAT-8                  
1 37605U 11022A   21306.50951997  .00000094  00000-0  00000-0 0  9997
2 37605   0.0183 127.5867 0007212 123.2374  29.6539  1.00270308 36290
ST-2                    
1 37606U 11022B   21306.51757747 -.00000203  00000-0  00000-0 0  9999
2 37606   0.0112 261.7103 0002299 339.5686  75.0893  1.00269039 38351
CHINASAT 10 (ZX 10)     
1 37677U 11026A   21306.50884322 -.00000344  00000-0  00000-0 0  9996
2 37677   0.1043 264.0496 0004483 297.2771 134.4110  1.00269123 38071
TIANLIAN 1-02           
1 37737U 11032A   21306.63912291 -.00000004  00000-0  00000-0 0  9994
2 37737   2.6289  74.8262 0019919 110.1745 258.2954  1.00275160 37808
GSAT-12                 
1 37746U 11034A   21306.16250896  .00000134  00000-0  00000-0 0  9993
2 37746   0.8050  95.0113 0007389   9.2303  43.8586  1.00271280 26570
SES-3                   
1 37748U 11035A   21306.45009826 -.00000093  00000-0  00000-0 0  9998
2 37748   0.0519  72.6164 0002845 153.8043 234.5972  1.00271826 37688
KAZSAT-2                
1 37749U 11035B   21306.45721927 -.00000190  00000-0  00000-0 0  9990
2 37749   0.0312 280.5325 0000925   3.7701   8.7956  1.00272243 36462
